OBJECT_NAME,OBJECT_ID,EPOCH,MEAN_MOTION,ECCENTRICITY,INCLINATION,RA_OF_ASC_NODE,ARG_OF_PERICENTER,MEAN_ANOMALY,EPHEMERIS_TYPE,CLASSIFICATION_TYPE,NORAD_CAT_ID,ELEMENT_SET_NO,REV_AT_EPOCH,BSTAR,MEAN_MOTION_DOT,MEAN_MOTION_DDOT
STARLINK-2558,2021-036G,2026-03-09T05:46:50.419776,15.30182377,.0001162,53.1601,77.4576,117.5485,242.5634,0,U,48282,999,26834,-.40137E-4,-.1547E-4,0
ICEYE-X31,2023-174AJ,2026-03-09T12:07:29.817408,15.30932354,.0001505,97.3851,144.4967,334.3114,25.8052,0,U,58288,999,12948,.61995E-3,.18478E-3,0
